0 FENGYUN 1C DEB
1 29940U 99025JN  13281.61479226  .00000655  00000-0  37655-3 0  2179
2 29940 098.9983 295.6094 0082902 152.6797 326.0990 14.11054211346490
0 FENGYUN 1C DEB
1 29940U 99025JN  13283.02029299  .00000790  00000-0  44911-3 0  2181
2 29940 098.9982 297.0177 0082938 148.7622 265.7263 14.11056615346693
0 FENGYUN 1C DEB
1 29940U 99025JN  13285.58594659  .00000651  00000-0  37423-3 0  2200
2 29940 098.9976 299.5882 0082998 141.6295 338.6637 14.11061343347050
0 FENGYUN 1C DEB
1 29940U 99025JN  13286.99327667  .00000551  00000-0  32037-3 0  2215
2 29940 098.9973 300.9982 0083024 137.7153 287.5979 14.11064480347253
0 FENGYUN 1C DEB
1 29940U 99025JN  13288.05716558  .00000696  00000-0  39828-3 0  2221
2 29940 098.9972 302.0639 0083030 134.7546 291.9377 14.11067526347406
0 FENGYUN 1C DEB
1 29940U 99025JN  13290.48159005  .00000696  00000-0  39847-3 0  2231
2 29940 098.9971 304.4926 0083070 127.9981 007.5783 14.11069901347749
0 FENGYUN 1C DEB
1 29940U 99025JN  13292.54272921  .00000914  00000-0  51561-3 0  2244
2 29940 098.9972 306.5573 0083063 122.2784 037.7927 14.11071349348039
0 FENGYUN 1C DEB
1 29940U 99025JN  13294.59066611  .00000968  00000-0  54477-3 0  2257
2 29940 098.9973 308.6088 0083038 116.5913 000.9523 14.11075501348326
